{
  "type": "FeatureCollection",
  "features": [
    {
      "type": "Feature",
      "properties": {
        "norad_id": 35105,
        "name": "FENGYUN 1C DEB",
        "group": "fengyun-1c-debris",
        "lat": -78.35494233072454,
        "lon": 25.91119319379086,
        "alt_km": 779.3804917450134,
        "timestamp": "2025-12-20T14:38:02.256757+00:00",
        "meta_object_name": "FENGYUN 1C DEB",
        "meta_object_id": "1999-025DKH",
        "meta_epoch": "2025-12-20T05:02:40.480800",
        "meta_mean_motion": 14.45398684,
        "meta_eccentricity": 0.0112505,
        "meta_inclination": 98.9441,
        "meta_ra_of_asc_node": 335.6575,
        "meta_arg_of_pericenter": 32.3245,
        "meta_mean_anomaly": 328.4774,
        "meta_ephemeris_type": 0,
        "meta_classification_type": "U",
        "meta_norad_cat_id": 35105,
        "meta_element_set_no": 999,
        "meta_rev_at_epoch": 94601,
        "meta_bstar": 0.00026476968,
        "meta_mean_motion_dot": 9.53e-06,
        "meta_mean_motion_ddot": 0,
        "tle_line1": "1 35105U 99025DKH 25354.21019075  .00000953  00000+0  26477-3 0  9998",
        "tle_line2": "2 35105  98.9441 335.6575 0112505  32.3245 328.4774 14.45398684946015"
      },
      "geometry": {
        "type": "Point",
        "coordinates": [
          25.91119319379086,
          -78.35494233072454
        ]
      }
    },
    {
      "type": "Feature",
      "properties": {
        "norad_id": 35108,
        "name": "FENGYUN 1C DEB",
        "group": "fengyun-1c-debris",
        "lat": -58.267204719523455,
        "lon": 155.52423627564065,
        "alt_km": 969.0732176385172,
        "timestamp": "2025-12-20T14:38:02.256767+00:00",
        "meta_object_name": "FENGYUN 1C DEB",
        "meta_object_id": "1999-025DKL",
        "meta_epoch": "2025-12-14T17:32:43.265184",
        "meta_mean_motion": 14.06913766,
        "meta_eccentricity": 0.01353379,
        "meta_inclination": 98.801,
        "meta_ra_of_asc_node": 344.3103,
        "meta_arg_of_pericenter": 55.9263,
        "meta_mean_anomaly": 305.4667,
        "meta_ephemeris_type": 0,
        "meta_classification_type": "U",
        "meta_norad_cat_id": 35108,
        "meta_element_set_no": 999,
        "meta_rev_at_epoch": 89266,
        "meta_bstar": 0.00032621951,
        "meta_mean_motion_dot": 5.49e-06,
        "meta_mean_motion_ddot": 0,
        "tle_line1": "1 35108U 99025DKL 25348.73105631  .00000549  00000+0  32622-3 0  9995",
        "tle_line2": "2 35108  98.8010 344.3103 0135337  55.9263 305.4667 14.06913766892660"
      },
      "geometry": {
        "type": "Point",
        "coordinates": [
          155.52423627564065,
          -58.267204719523455
        ]
      }
    },
    {
      "type": "Feature",
      "properties": {
        "norad_id": 35109,
        "name": "FENGYUN 1C DEB",
        "group": "fengyun-1c-debris",
        "lat": 71.31035999360748,
        "lon": -42.92971120951785,
        "alt_km": 761.8869009144009,
        "timestamp": "2025-12-20T14:38:02.256777+00:00",
        "meta_object_name": "FENGYUN 1C DEB",
        "meta_object_id": "1999-025DKM",
        "meta_epoch": "2025-12-18T04:50:17.969568",
        "meta_mean_motion": 14.20883962,
        "meta_eccentricity": 0.01531157,
        "meta_inclination": 98.6156,
        "meta_ra_of_asc_node": 341.3486,
        "meta_arg_of_pericenter": 18.6394,
        "meta_mean_anomaly": 342.0307,
        "meta_ephemeris_type": 0,
        "meta_classification_type": "U",
        "meta_norad_cat_id": 35109,
        "meta_element_set_no": 999,
        "meta_rev_at_epoch": 64237,
        "meta_bstar": 0.00026485405,
        "meta_mean_motion_dot": 6.02e-06,
        "meta_mean_motion_ddot": 0,
        "tle_line1": "1 35109U 99025DKM 25352.20159687  .00000602  00000+0  26485-3 0  9993",
        "tle_line2": "2 35109  98.6156 341.3486 0153115  18.6394 342.0307 14.20883962642375"
      },
      "geometry": {
        "type": "Point",
        "coordinates": [
          -42.92971120951785,
          71.31035999360748
        ]
      }
    },
    {
      "type": "Feature",
      "properties": {
        "norad_id": 35111,
        "name": "FENGYUN 1C DEB",
        "group": "fengyun-1c-debris",
        "lat": 4.577721938136119,
        "lon": 72.91412399508063,
        "alt_km": 873.6744632835507,
        "timestamp": "2025-12-20T14:38:02.256787+00:00",
        "meta_object_name": "FENGYUN 1C DEB",
        "meta_object_id": "1999-025DKP",
        "meta_epoch": "2025-12-16T11:54:10.013472",
        "meta_mean_motion": 14.10973478,
        "meta_eccentricity": 0.0021869,
        "meta_inclination": 99.4657,
        "meta_ra_of_asc_node": 69.3478,
        "meta_arg_of_pericenter": 209.5025,
        "meta_mean_anomaly": 150.4911,
        "meta_ephemeris_type": 0,
        "meta_classification_type": "U",
        "meta_norad_cat_id": 35111,
        "meta_element_set_no": 999,
        "meta_rev_at_epoch": 64197,
        "meta_bstar": 0.00043746639,
        "meta_mean_motion_dot": 7.38e-06,
        "meta_mean_motion_ddot": 0,
        "tle_line1": "1 35111U 99025DKP 25350.49594923  .00000738  00000+0  43747-3 0  9991",
        "tle_line2": "2 35111  99.4657  69.3478 0021869 209.5025 150.4911 14.10973478641971"
      },
      "geometry": {
        "type": "Point",
        "coordinates": [
          72.91412399508063,
          4.577721938136119
        ]
      }
    },
    {
      "type": "Feature",
      "properties": {
        "norad_id": 35116,
        "name": "FENGYUN 1C DEB",
        "group": "fengyun-1c-debris",
        "lat": -70.43414803184137,
        "lon": 65.87189642120772,
        "alt_km": 821.5581261357456,
        "timestamp": "2025-12-20T14:38:02.256798+00:00",
        "meta_object_name": "FENGYUN 1C DEB",
        "meta_object_id": "1999-025DKU",
        "meta_epoch": "2025-12-10T22:26:07.135584",
        "meta_mean_motion": 14.25062569,
        "meta_eccentricity": 0.0059356,
        "meta_inclination": 98.6618,
        "meta_ra_of_asc_node": 30.9255,
        "meta_arg_of_pericenter": 54.5271,
        "meta_mean_anomaly": 306.1428,
        "meta_ephemeris_type": 0,
        "meta_classification_type": "U",
        "meta_norad_cat_id": 35116,
        "meta_element_set_no": 999,
        "meta_rev_at_epoch": 59934,
        "meta_bstar": 0.0014341,
        "meta_mean_motion_dot": 3.381e-05,
        "meta_mean_motion_ddot": 0,
        "tle_line1": "1 35116U 99025DKU 25344.93480481  .00003381  00000+0  14341-2 0  9995",
        "tle_line2": "2 35116  98.6618  30.9255 0059356  54.5271 306.1428 14.25062569599346"
      },
      "geometry": {
        "type": "Point",
        "coordinates": [
          65.87189642120772,
          -70.43414803184137
        ]
      }
    },
    {
      "type": "Feature",
      "properties": {
        "norad_id": 35121,
        "name": "FENGYUN 1C DEB",
        "group": "fengyun-1c-debris",
        "lat": -70.66172353906398,
        "lon": 12.615608547840568,
        "alt_km": 999.684962929553,
        "timestamp": "2025-12-20T14:38:02.256814+00:00",
        "meta_object_name": "FENGYUN 1C DEB",
        "meta_object_id": "1999-025DKZ",
        "meta_epoch": "2025-12-14T20:41:20.055552",
        "meta_mean_motion": 14.04750382,
        "meta_eccentricity": 0.01586034,
        "meta_inclination": 98.3008,
        "meta_ra_of_asc_node": 211.9365,
        "meta_arg_of_pericenter": 90.6719,
        "meta_mean_anomaly": 271.2626,
        "meta_ephemeris_type": 0,
        "meta_classification_type": "U",
        "meta_norad_cat_id": 35121,
        "meta_element_set_no": 999,
        "meta_rev_at_epoch": 61121,
        "meta_bstar": 0.00012700781,
        "meta_mean_motion_dot": 1.91e-06,
        "meta_mean_motion_ddot": 0,
        "tle_line1": "1 35121U 99025DKZ 25348.86203768  .00000191  00000+0  12701-3 0  9993",
        "tle_line2": "2 35121  98.3008 211.9365 0158603  90.6719 271.2626 14.04750382611215"
      },
      "geometry": {
        "type": "Point",
        "coordinates": [
          12.615608547840568,
          -70.66172353906398
        ]
      }
    },
    {
      "type": "Feature",
      "properties": {
        "norad_id": 35122,
        "name": "FENGYUN 1C DEB",
        "group": "fengyun-1c-debris",
        "lat": 75.93397577642945,
        "lon": -24.73530340563366,
        "alt_km": 827.8737408976012,
        "timestamp": "2025-12-20T14:38:02.256824+00:00",
        "meta_object_name": "FENGYUN 1C DEB",
        "meta_object_id": "1999-025DLA",
        "meta_epoch": "2025-12-16T06:40:38.257248",
        "meta_mean_motion": 14.14128348,
        "meta_eccentricity": 0.00254765,
        "meta_inclination": 98.6718,
        "meta_ra_of_asc_node": 8.5868,
        "meta_arg_of_pericenter": 147.8283,
        "meta_mean_anomaly": 212.4451,
        "meta_ephemeris_type": 0,
        "meta_classification_type": "U",
        "meta_norad_cat_id": 35122,
        "meta_element_set_no": 999,
        "meta_rev_at_epoch": 63917,
        "meta_bstar": 0.00028818425,
        "meta_mean_motion_dot": 5.08e-06,
        "meta_mean_motion_ddot": 0,
        "tle_line1": "1 35122U 99025DLA 25350.27822057  .00000508  00000+0  28818-3 0  9998",
        "tle_line2": "2 35122  98.6718   8.5868 0025476 147.8283 212.4451 14.14128348639177"
      },
      "geometry": {
        "type": "Point",
        "coordinates": [
          -24.73530340563366,
          75.93397577642945
        ]
      }
    }
  ]
}